ONEWEB-0208             
1 48243U 21031AK  26089.60639623 -.00000056  00000+0 -18689-3 0  9995
2 48243  87.8951 305.3896 0001876  78.6137 281.5204 13.14500524237985
ONEWEB-0200             
1 48244U 21031AL  26089.87439892  .00000065  00000+0  13958-3 0  9993
2 48244  87.8943 305.3243 0001647  81.0643 279.0673 13.14504221237945
ONEWEB-0217             
1 48245U 21031AM  26089.89025227  .00000312  00000+0  80753-3 0  9991
2 48245  87.8948 305.3218 0001898  76.8145 283.3197 13.14504431237896
ONEWEB-0211             
1 48767U 21045A   26089.73827346  .00000101  00000+0  23293-3 0  9992
2 48767  87.8930 274.7563 0002336  83.4566 276.6831 13.16192226234127
ONEWEB-0223             
1 48768U 21045B   26089.93027504 -.00000036  00000+0 -12964-3 0  9995
2 48768  87.8935 274.8052 0002156  92.0891 268.0487 13.15549674234117
ONEWEB-0230             
1 48769U 21045C   26089.59752694  .00000043  00000+0  81105-4 0  9993
2 48769  87.8927 274.8926 0001596  96.0396 264.0917 13.15549255234333
ONEWEB-0237             
1 48770U 21045D   26089.73854969  .00000088  00000+0  20069-3 0  9999
2 48770  87.8927 274.8662 0001947  96.4407 263.6945 13.15548951234078
ONEWEB-0235             
1 48771U 21045E   26089.94136365  .00000071  00000+0  15347-3 0  9991
2 48771  87.8934 274.8036 0002162  94.3613 265.7764 13.15549411234094
ONEWEB-0242             
1 48772U 21045F   26089.78290748 -.00000005  00000+0 -46361-4 0  9990
2 48772  87.8934 274.8310 0001837  97.7485 262.3854 13.15549313234119
ONEWEB-0241             
1 48773U 21045G   26089.54206413 -.00000063  00000+0 -20146-3 0  9997
2 48773  87.8927 274.9066 0002078  87.7294 272.4075 13.15549356233995
ONEWEB-0243             
1 48774U 21045H   26089.87799056  .00000168  00000+0  41278-3 0  9997
2 48774  87.8927 274.8507 0002107 105.7425 254.3938 13.15547608234069
ONEWEB-0222             
1 48775U 21045J   26089.93740622  .00000016  00000+0  90072-5 0  9990
2 48775  87.8933 274.8004 0001840  91.8904 268.2437 13.15550112234117
ONEWEB-0244             
1 48776U 21045K   26089.81143885  .00000194  00000+0  48037-3 0  9995
2 48776  87.8936 274.8163 0001838  95.4858 264.6482 13.15549203234661
ONEWEB-0247             
1 48777U 21045L   26089.80827238  .00000184  00000+0  45333-3 0  9991
2 48777  87.8927 274.8595 0002475 103.5291 256.6115 13.15549646234105
ONEWEB-0245             
1 48778U 21045M   26089.80350799  .00000154  00000+0  37509-3 0  9998
2 48778  87.8934 274.8323 0001858  87.4244 272.7099 13.15549578234075
ONEWEB-0229             
1 48779U 21045N   26089.87481542  .00000148  00000+0  36025-3 0  9992
2 48779  87.8934 274.8164 0001780  97.6799 262.4534 13.15549242234114
ONEWEB-0228             
1 48780U 21045P   26089.90823877 -.00000007  00000+0 -53251-4 0  9996
2 48780  87.8938 274.7970 0001818  93.7050 266.4288 13.15549253234036
ONEWEB-0232             
1 48781U 21045Q   26089.80669156  .00000392  00000+0  10070-2 0  9999
2 48781  87.8947 274.8187 0001738  93.6013 266.5316 13.15549221234349
ONEWEB-0231             
1 48782U 21045R   26089.93661251  .00000031  00000+0  48526-4 0  9991
2 48782  87.8926 274.8156 0001968  92.5667 267.5689 13.15549141234054
ONEWEB-0234             
1 48783U 21045S   26089.89845040  .00000121  00000+0  28722-3 0  9992
2 48783  87.8931 274.8012 0001642  63.7261 296.4038 13.15547105234182
ONEWEB-0238             
1 48784U 21045T   26089.89872917  .00000145  00000+0  35061-3 0  9996
2 48784  87.8929 274.7948 0001609  78.2332 281.8979 13.15549738234085
ONEWEB-0240             
1 48785U 21045U   26089.76786157 -.00000110  00000+0 -32614-3 0  9998
2 48785  87.8946 274.8265 0002018  88.0854 272.0508 13.15549913234097
ONEWEB-0246             
1 48786U 21045V   26089.76231454 -.00000064  00000+0 -20518-3 0  9992
2 48786  87.8937 274.8351 0001777  96.8426 263.2906 13.15549632233964
ONEWEB-0210             
1 48787U 21045W   26089.88907741  .00000076  00000+0  16655-3 0  9993
2 48787  87.8938 274.8066 0002368 111.5977 248.5406 13.15548949234021
ONEWEB-0214             
1 48788U 21045X   26089.89779680  .00000113  00000+0  26656-3 0  9998
2 48788  87.8939 274.8010 0001869 105.7916 254.3421 13.15549416233992
ONEWEB-0221             
1 48789U 21045Y   26089.90491021  .00000118  00000+0  27952-3 0  9996
2 48789  87.8939 274.8092 0001928  93.1113 267.0238 13.15547558234081
ONEWEB-0213             
1 48790U 21045Z   26089.89381709  .00000155  00000+0  37649-3 0  9992
2 48790  87.8937 274.8152 0002001  97.3401 262.7957 13.15550255234142
ONEWEB-0212             
1 48791U 21045AA  26089.87085685  .00000095  00000+0  21869-3 0  9995
2 48791  87.8935 274.8142 0001682  91.6756 268.4567 13.15548785234138
ONEWEB-0227             
1 48792U 21045AB  26089.94612346  .00000122  00000+0  28919-3 0  9998
2 48792  87.8932 274.8012 0001761  91.7004 268.4328 13.15549560234099
ONEWEB-0226             
1 48793U 21045AC  26089.93977730  .00000024  00000+0  28712-4 0  9992
2 48793  87.8925 274.8101 0001953  99.7177 260.4174 13.15549543234062
ONEWEB-0224             
1 48794U 21045AD  26089.90332804  .00000092  00000+0  21018-3 0  9993
2 48794  87.8927 274.8534 0002215  71.3309 288.8061 13.15551429233985
ONEWEB-0233             
1 48795U 21045AE  26089.90796640 -.00000020  00000+0 -86046-4 0  9992
2 48795  87.8927 274.8613 0002030  91.1731 268.9632 13.15549800234005
ONEWEB-0190             
1 48796U 21045AF  26089.89539957  .00000169  00000+0  41401-3 0  9994
2 48796  87.8928 274.8251 0002446  98.0468 262.0940 13.15550674234074
ONEWEB-0236             
1 48797U 21045AG  26089.76072333 -.00000090  00000+0 -27345-3 0  9997
2 48797  87.8928 274.8631 0001598  89.6276 270.5038 13.15549447233940
ONEWEB-0248             
1 48798U 21045AH  26089.77340825 -.00000103  00000+0 -30843-3 0  9995
2 48798  87.8935 274.8359 0002178  88.3504 271.7876 13.15547254234107
ONEWEB-0225             
1 48799U 21045AJ  26089.87164467  .00000021  00000+0  22029-4 0  9998
2 48799  87.8925 274.8304 0002311  97.0710 263.0683 13.15548631234124
ONEWEB-0215             
1 48800U 21045AK  26089.76548367 -.00000092  00000+0 -27912-3 0  9999
2 48800  87.8939 274.8266 0002460  93.8803 266.2609 13.15549681233983
ONEWEB-0216             
1 48801U 21045AL  26089.92709891 -.00000104  00000+0 -31118-3 0  9996
2 48801  87.8933 274.8119 0001707  95.9942 264.1382 13.15547446234012
ONEWEB-0239             
1 48802U 21045AM  26089.93184596 -.00002551  00000+0 -68116-2 0  9992
2 48802  87.8924 274.8244 0002748  85.1562 274.9882 13.15559312234050
ONEWEB-0249             
1 48967U 21060A   26089.85201678 -.00000009  00000+0 -56535-4 0  9993
2 48967  87.9035 244.3474 0001802  96.2749 263.8587 13.16593025229304
ONEWEB-0250             
1 48968U 21060B   26089.89638206  .00000073  00000+0  13612-3 0  9996
2 48968  87.9035 242.3488 0001990  68.4699 291.6649 13.25828886229844
ONEWEB-0252             
1 48970U 21060D   26089.80690247  .00000106  00000+0  24390-3 0  9995
2 48970  87.9033 244.3487 0001779 107.0440 253.0886 13.16595082229344
ONEWEB-0253             
1 48971U 21060E   26089.87180275  .00000075  00000+0  16253-3 0  9992
2 48971  87.9033 244.3415 0001804  97.6123 262.5213 13.16596370229280
ONEWEB-0254             
1 48972U 21060F   26089.80532265  .00000095  00000+0  21507-3 0  9996
2 48972  87.9038 244.3502 0002035  94.2436 265.8928 13.16594727229272
ONEWEB-0255             
1 48973U 21060G   26089.84331760 -.00000053  00000+0 -17157-3 0  9990
2 48973  87.9034 244.3511 0001959  97.2728 262.8626 13.16592262229353
ONEWEB-0256             
1 48974U 21060H   26089.86943069  .00000080  00000+0  17603-3 0  9998
2 48974  87.9036 244.3536 0001643 103.1842 256.9472 13.16596019229321
ONEWEB-0257             
1 48975U 21060J   26089.90189708  .00000037  00000+0  62153-4 0  9999
2 48975  87.9036 244.3306 0001886 101.0742 259.0601 13.16595526229287
ONEWEB-0258             
1 48976U 21060K   26089.90346289 -.00000176  00000+0 -49520-3 0  9997
2 48976  87.9033 244.3415 0001750  96.7885 263.3445 13.16596606229299
ONEWEB-0259             
1 48977U 21060L   26089.89714053  .00000008  00000+0 -13877-4 0  9994
2 48977  87.9035 244.3423 0001882  96.2144 263.9202 13.16595340229325
ONEWEB-0260             
1 48978U 21060M   26089.88842481  .00000073  00000+0  15767-3 0  9991
2 48978  87.9034 244.3498 0001679 113.1629 246.9679 13.16592969229309
ONEWEB-0261             
1 48979U 21060N   26089.85834334  .00000022  00000+0  24175-4 0  9995
2 48979  87.9028 244.3543 0002095 102.0758 258.0608 13.16593837229353
ONEWEB-0262             
1 48980U 21060P   26089.83856445 -.00000029  00000+0 -11073-3 0  9993
2 48980  87.9035 244.3417 0001906  91.2686 268.8664 13.16595212229318
ONEWEB-0263             
1 48981U 21060Q   26089.87022910  .00000086  00000+0  19218-3 0  9990
2 48981  87.9034 244.3469 0002120  99.1735 260.9636 13.16594788229281
ONEWEB-0264             
1 48982U 21060R   26089.90744439  .00000010  00000+0 -67438-5 0  9999
2 48982  87.9035 244.3432 0001890 105.6052 254.5288 13.16594187229297
ONEWEB-0266             
1 48984U 21060T   26089.85280580  .00000011  00000+0 -60216-5 0  9995
2 48984  87.9033 244.3435 0001715  97.0622 263.0704 13.16593099229270
ONEWEB-0267             
1 48985U 21060U   26089.86389956  .00000066  00000+0  13815-3 0  9994
2 48985  87.9032 244.3376 0001927 101.7543 258.3804 13.16594714229288
ONEWEB-0268             
1 48986U 21060V   26089.90822978 -.00000023  00000+0 -92812-4 0  9996
2 48986  87.9034 244.3383 0001751 101.4588 258.6739 13.16594802229558
ONEWEB-0269             
1 48987U 21060W   26089.88922818  .00000047  00000+0  89363-4 0  9999
2 48987  87.9025 244.3540 0001543 103.1232 257.0072 13.16595160229324
ONEWEB-0270             
1 48988U 21060X   26089.90664685  .00000025  00000+0  31464-4 0  9993
2 48988  87.9031 244.3406 0002109  94.6154 265.5218 13.16595267229367
